start=new Date('2022-08-09T00:00:00.000Z').valueOf();
sats=[{"TLE_LINE2":"2 53256  53.2200 327.2114 0001872 348.4333  29.0220 15.73300020  1301","BSTAR":"-0.00108390000000","FILE":"3532305","REF_FRAME":"TEME","ELEMENT_SET_NO":"999","TLE_LINE1":"1 53256U 22086Q   22220.91667824 -.00150701  00000-0 -10839-2 0  9999","TIME_SYSTEM":"UTC","REV_AT_EPOCH":"130","PERIAPSIS":"348.216","COUNTRY_CODE":"US","MEAN_MOTION":"15.73300020","SITE":"AFETR","MEAN_ELEMENT_THEORY":"SGP4","CENTER_NAME":"EARTH","RCS_SIZE":"LARGE","EPOCH":"2022-08-08T22:00:00.999936","OBJECT_NAME":"STARLINK-4147","GP_ID":"209864686","MEAN_MOTION_DDOT":"0.0000000000000","APOAPSIS":"350.734","RA_OF_ASC_NODE":"327.2114","LAUNCH_DATE":"2022-07-24","EPHEMERIS_TYPE":"0","INCLINATION":"53.2200","PERIOD":"91.527","DECAY_DATE":null,"OBJECT_ID":"2022-086Q","CLASSIFICATION_TYPE":"U","MEAN_ANOMALY":"29.0220","OBJECT_TYPE":"PAYLOAD","SEMIMAJOR_AXIS":"6727.610","MEAN_MOTION_DOT":"-0.00150701","NORAD_CAT_ID":"53256","ARG_OF_PERICENTER":"348.4333","ECCENTRICITY":"0.00018720"},{"COUNTRY_CODE":"US","PERIAPSIS":"348.375","RCS_SIZE":"LARGE","CENTER_NAME":"EARTH","MEAN_ELEMENT_THEORY":"SGP4","SITE":"AFETR","MEAN_MOTION":"15.73292272","ELEMENT_SET_NO":"999","TLE_LINE1":"1 53257U 22086R   22220.91667824 -.00113785  00000-0 -81403-3 0  9997","FILE":"3532305","REF_FRAME":"TEME","BSTAR":"-0.00081403000000","TLE_LINE2":"2 53257  53.2197 327.2063 0001668  33.0200 346.7988 15.73292272  1302","REV_AT_EPOCH":"130","TIME_SYSTEM":"UTC","SEMIMAJOR_AXIS":"6727.632","OBJECT_TYPE":"PAYLOAD","MEAN_ANOMALY":"346.7988","CLASSIFICATION_TYPE":"U","OBJECT_ID":"2022-086R","PERIOD":"91.528","DECAY_DATE":null,"INCLINATION":"53.2197","ECCENTRICITY":"0.00016680","ARG_OF_PERICENTER":"33.0200","NORAD_CAT_ID":"53257","MEAN_MOTION_DOT":"-0.00113785","APOAPSIS":"350.619","MEAN_MOTION_DDOT":"0.0000000000000","GP_ID":"209864429","OBJECT_NAME":"STARLINK-4144","EPOCH":"2022-08-08T22:00:00.999936","EPHEMERIS_TYPE":"0","LAUNCH_DATE":"2022-07-24","RA_OF_ASC_NODE":"327.2063"},{"APOAPSIS":"350.790","MEAN_MOTION_DDOT":"0.0000000000000","OBJECT_NAME":"STARLINK-4127","GP_ID":"209864171","EPOCH":"2022-08-08T22:00:00.999936","LAUNCH_DATE":"2022-07-24","EPHEMERIS_TYPE":"0","RA_OF_ASC_NODE":"327.2083","SEMIMAJOR_AXIS":"6727.715","CLASSIFICATION_TYPE":"U","MEAN_ANOMALY":"343.9170","OBJECT_TYPE":"PAYLOAD","PERIOD":"91.530","DECAY_DATE":null,"OBJECT_ID":"2022-086S","INCLINATION":"53.2196","ECCENTRICITY":"0.00017980","NORAD_CAT_ID":"53258","ARG_OF_PERICENTER":"34.7833","MEAN_MOTION_DOT":"-0.00108667","FILE":"3532305","REF_FRAME":"TEME","BSTAR":"-0.00077770000000","ELEMENT_SET_NO":"999","TLE_LINE1":"1 53258U 22086S   22220.91667824 -.00108667  00000-0 -77770-3 0  9993","TLE_LINE2":"2 53258  53.2196 327.2083 0001798  34.7833 343.9170 15.73263247  1300","REV_AT_EPOCH":"130","TIME_SYSTEM":"UTC","COUNTRY_CODE":"US","PERIAPSIS":"348.370","RCS_SIZE":"LARGE","MEAN_ELEMENT_THEORY":"SGP4","CENTER_NAME":"EARTH","MEAN_MOTION":"15.73263247","SITE":"AFETR"},{"CENTER_NAME":"EARTH","MEAN_ELEMENT_THEORY":"SGP4","MEAN_MOTION":"15.73285505","SITE":"AFETR","RCS_SIZE":"LARGE","PERIAPSIS":"348.318","COUNTRY_CODE":"US","REV_AT_EPOCH":"130","TIME_SYSTEM":"UTC","TLE_LINE2":"2 53259  53.2199 327.2058 0001781  31.8860 348.6122 15.73285505  1306","ELEMENT_SET_NO":"999","TLE_LINE1":"1 53259U 22086T   22220.91667824 -.00125500  00000-0 -89979-3 0  9993","FILE":"3532305","REF_FRAME":"TEME","BSTAR":"-0.00089979000000","ARG_OF_PERICENTER":"31.8860","NORAD_CAT_ID":"53259","MEAN_MOTION_DOT":"-0.00125500","ECCENTRICITY":"0.00017810","OBJECT_ID":"2022-086T","PERIOD":"91.528","DECAY_DATE":null,"INCLINATION":"53.2199","SEMIMAJOR_AXIS":"6727.651","OBJECT_TYPE":"PAYLOAD","MEAN_ANOMALY":"348.6122","CLASSIFICATION_TYPE":"U","RA_OF_ASC_NODE":"327.2058","LAUNCH_DATE":"2022-07-24","EPHEMERIS_TYPE":"0","GP_ID":"209865072","OBJECT_NAME":"STARLINK-4140","EPOCH":"2022-08-08T22:00:00.999936","APOAPSIS":"350.715","MEAN_MOTION_DDOT":"0.0000000000000"},{"OBJECT_ID":"2022-086U","DECAY_DATE":null,"PERIOD":"91.530","INCLINATION":"53.2193","SEMIMAJOR_AXIS":"6727.759","MEAN_ANOMALY":"358.5610","OBJECT_TYPE":"PAYLOAD","CLASSIFICATION_TYPE":"U","ARG_OF_PERICENTER":"20.7290","NORAD_CAT_ID":"53260","MEAN_MOTION_DOT":"-0.00106579","ECCENTRICITY":"0.00016110","GP_ID":"209864300","OBJECT_NAME":"STARLINK-4136","EPOCH":"2022-08-08T22:00:00.999936","APOAPSIS":"350.708","MEAN_MOTION_DDOT":"0.0000000000000","RA_OF_ASC_NODE":"327.2057","EPHEMERIS_TYPE":"0","LAUNCH_DATE":"2022-07-24","PERIAPSIS":"348.540","COUNTRY_CODE":"US","CENTER_NAME":"EARTH","MEAN_ELEMENT_THEORY":"SGP4","MEAN_MOTION":"15.73247814","SITE":"AFETR","RCS_SIZE":"LARGE","TLE_LINE2":"2 53260  53.2193 327.2057 0001611  20.7290 358.5610 15.73247814  1300","ELEMENT_SET_NO":"999","TLE_LINE1":"1 53260U 22086U   22220.91667824 -.00106579  00000-0 -76301-3 0  9995","BSTAR":"-0.00076301000000","FILE":"3532305","REF_FRAME":"TEME","REV_AT_EPOCH":"130","TIME_SYSTEM":"UTC"},{"LAUNCH_DATE":"2022-07-24","EPHEMERIS_TYPE":"0","RA_OF_ASC_NODE":"327.2021","MEAN_MOTION_DDOT":"0.0000000000000","APOAPSIS":"350.925","EPOCH":"2022-08-08T22:00:00.999936","GP_ID":"209864815","OBJECT_NAME":"STARLINK-4062","ECCENTRICITY":"0.00020080","MEAN_MOTION_DOT":"-0.00110938","ARG_OF_PERICENTER":"10.8514","NORAD_CAT_ID":"53261","MEAN_ANOMALY":"11.3851","OBJECT_TYPE":"PAYLOAD","CLASSIFICATION_TYPE":"U","SEMIMAJOR_AXIS":"6727.709","INCLINATION":"53.2197","OBJECT_ID":"2022-086V","PERIOD":"91.529","DECAY_DATE":null,"TIME_SYSTEM":"UTC","REV_AT_EPOCH":"130","TLE_LINE1":"1 53261U 22086V   22220.91667824 -.00110938  00000-0 -79416-3 0  9990","ELEMENT_SET_NO":"999","FILE":"3532305","BSTAR":"-0.00079416000000","REF_FRAME":"TEME","TLE_LINE2":"2 53261  53.2197 327.2021 0002008  10.8514  11.3851 15.73265385  1300","RCS_SIZE":"LARGE","MEAN_MOTION":"15.73265385","SITE":"AFETR","MEAN_ELEMENT_THEORY":"SGP4","CENTER_NAME":"EARTH","COUNTRY_CODE":"US","PERIAPSIS":"348.223"},{"DECAY_DATE":null,"PERIOD":"91.529","OBJECT_ID":"2022-086W","INCLINATION":"53.2194","SEMIMAJOR_AXIS":"6727.695","CLASSIFICATION_TYPE":"U","MEAN_ANOMALY":"11.5283","OBJECT_TYPE":"PAYLOAD","NORAD_CAT_ID":"53262","ARG_OF_PERICENTER":"9.5583","MEAN_MOTION_DOT":"-0.00138205","ECCENTRICITY":"0.00017220","OBJECT_NAME":"STARLINK-4085","GP_ID":"209864558","EPOCH":"2022-08-08T22:00:00.999936","APOAPSIS":"350.719","MEAN_MOTION_DDOT":"0.0000000000000","RA_OF_ASC_NODE":"327.2028","LAUNCH_DATE":"2022-07-24","EPHEMERIS_TYPE":"0","PERIAPSIS":"348.402","COUNTRY_CODE":"US","CENTER_NAME":"EARTH","MEAN_ELEMENT_THEORY":"SGP4","SITE":"AFETR","MEAN_MOTION":"15.73270126","RCS_SIZE":"LARGE","TLE_LINE2":"2 53262  53.2194 327.2028 0001722   9.5583  11.5283 15.73270126  1308","BSTAR":"-0.00099349000000","FILE":"3532305","REF_FRAME":"TEME","TLE_LINE1":"1 53262U 22086W   22220.91667824 -.00138205  00000-0 -99349-3 0  9995","ELEMENT_SET_NO":"999","REV_AT_EPOCH":"130","TIME_SYSTEM":"UTC"},{"CENTER_NAME":"EARTH","MEAN_ELEMENT_THEORY":"SGP4","SITE":"AFETR","MEAN_MOTION":"15.73292719","RCS_SIZE":"LARGE","PERIAPSIS":"348.383","COUNTRY_CODE":"US","REV_AT_EPOCH":"130","TIME_SYSTEM":"UTC","TLE_LINE2":"2 53263  53.2203 327.2025 0001654  31.6730 351.1025 15.73292719  1300","TLE_LINE1":"1 53263U 22086X   22220.91667824 -.00098088  00000-0 -69981-3 0  9999","ELEMENT_SET_NO":"999","BSTAR":"-0.00069981000000","FILE":"3532305","REF_FRAME":"TEME","ARG_OF_PERICENTER":"31.6730","NORAD_CAT_ID":"53263","MEAN_MOTION_DOT":"-0.00098088","ECCENTRICITY":"0.00016540","OBJECT_ID":"2022-086X","PERIOD":"91.528","DECAY_DATE":null,"INCLINATION":"53.2203","SEMIMAJOR_AXIS":"6727.631","OBJECT_TYPE":"PAYLOAD","MEAN_ANOMALY":"351.1025","CLASSIFICATION_TYPE":"U","RA_OF_ASC_NODE":"327.2025","LAUNCH_DATE":"2022-07-24","EPHEMERIS_TYPE":"0","GP_ID":"209864944","OBJECT_NAME":"STARLINK-4130","EPOCH":"2022-08-08T22:00:00.999936","APOAPSIS":"350.609","MEAN_MOTION_DDOT":"0.0000000000000"},{"RA_OF_ASC_NODE":"327.2020","EPHEMERIS_TYPE":"0","LAUNCH_DATE":"2022-07-24","GP_ID":"209864687","OBJECT_NAME":"STARLINK-3950","EPOCH":"2022-08-08T22:00:00.999936","APOAPSIS":"350.426","MEAN_MOTION_DDOT":"0.0000000000000","ARG_OF_PERICENTER":"39.6362","NORAD_CAT_ID":"53264","MEAN_MOTION_DOT":"-0.00142863","ECCENTRICITY":"0.00014540","OBJECT_ID":"2022-086Y","DECAY_DATE":null,"PERIOD":"91.527","INCLINATION":"53.2194","SEMIMAJOR_AXIS":"6727.583","OBJECT_TYPE":"PAYLOAD","MEAN_ANOMALY":"341.9900","CLASSIFICATION_TYPE":"U","REV_AT_EPOCH":"130","TIME_SYSTEM":"UTC","TLE_LINE2":"2 53264  53.2194 327.2020 0001454  39.6362 341.9900 15.73309456  1308","ELEMENT_SET_NO":"999","TLE_LINE1":"1 53264U 22086Y   22220.91667824 -.00142863  00000-0 -10260-2 0  9996","FILE":"3532305","BSTAR":"-0.00102600000000","REF_FRAME":"TEME","CENTER_NAME":"EARTH","MEAN_ELEMENT_THEORY":"SGP4","MEAN_MOTION":"15.73309456","SITE":"AFETR","RCS_SIZE":"LARGE","PERIAPSIS":"348.470","COUNTRY_CODE":"US"},{"SITE":"AFETR","MEAN_MOTION":"15.73277001","MEAN_ELEMENT_THEORY":"SGP4","CENTER_NAME":"EARTH","RCS_SIZE":"LARGE","PERIAPSIS":"348.439","COUNTRY_CODE":"US","TIME_SYSTEM":"UTC","REV_AT_EPOCH":"130","TLE_LINE2":"2 53265  53.2199 327.1990 0001637   2.4143  21.6381 15.73277001  1302","BSTAR":"-0.00096450000000","FILE":"3532305","REF_FRAME":"TEME","TLE_LINE1":"1 53265U 22086Z   22220.91667824 -.00134290  00000-0 -96450-3 0  9998","ELEMENT_SET_NO":"999","MEAN_MOTION_DOT":"-0.00134290","NORAD_CAT_ID":"53265","ARG_OF_PERICENTER":"2.4143","ECCENTRICITY":"0.00016370","INCLINATION":"53.2199","DECAY_DATE":null,"PERIOD":"91.529","OBJECT_ID":"2022-086Z","CLASSIFICATION_TYPE":"U","MEAN_ANOMALY":"21.6381","OBJECT_TYPE":"PAYLOAD","SEMIMAJOR_AXIS":"6727.676","RA_OF_ASC_NODE":"327.1990","LAUNCH_DATE":"2022-07-24","EPHEMERIS_TYPE":"0","EPOCH":"2022-08-08T22:00:00.999936","OBJECT_NAME":"STARLINK-4097","GP_ID":"209864430","MEAN_MOTION_DDOT":"0.0000000000000","APOAPSIS":"350.642"}];
